[{"OBJECT_NAME":"STARLINK-30329","OBJECT_ID":"2023-122D","EPOCH":"2026-03-09T10:09:40.039776","MEAN_MOTION":15.2674653,"ECCENTRICITY":0.00014457,"INCLINATION":43.0009,"RA_OF_ASC_NODE":94.2279,"ARG_OF_PERICENTER":260.6424,"MEAN_ANOMALY":99.4264,"EPHEMERIS_TYPE":0,"CLASSIFICATION_TYPE":"U","NORAD_CAT_ID":57635,"ELEMENT_SET_NO":999,"REV_AT_EPOCH":14216,"BSTAR":6.0950903e-5,"MEAN_MOTION_DOT":1.376e-5,"MEAN_MOTION_DDOT":0},{"OBJECT_NAME":"FENGYUN 1C DEB","OBJECT_ID":"1999-025CUF","EPOCH":"2026-03-09T01:34:38.628768","MEAN_MOTION":15.17132493,"ECCENTRICITY":0.01273829,"INCLINATION":98.8955,"RA_OF_ASC_NODE":293.2327,"ARG_OF_PERICENTER":89.1897,"MEAN_ANOMALY":272.3925,"EPHEMERIS_TYPE":0,"CLASSIFICATION_TYPE":"U","NORAD_CAT_ID":32185,"ELEMENT_SET_NO":999,"REV_AT_EPOCH":96318,"BSTAR":0.0036969643,"MEAN_MOTION_DOT":0.00091378,"MEAN_MOTION_DDOT":0}]
